AEROCUBE 16B            
1 59291U 24053D   26067.55453245  .00023043  00000+0  56476-3 0  9996
2 59291  49.9908 115.4511 0003756 293.4512  66.6055 15.40573981105650
FLOCK 4BE-28            
1 60519U 24149BD  26068.72187322  .00023409  00000+0  56831-3 0  9998
2 60519  97.3779 153.2276 0003504 284.6486  75.4372 15.41019720 87105
